[{"OBJECT_NAME":"LEMUR-2-AMANDA-SVANTE","OBJECT_ID":"2021-034B","EPOCH":"2026-03-09T18:37:58.823328","MEAN_MOTION":15.28469003,"ECCENTRICITY":0.00027027,"INCLINATION":97.5829,"RA_OF_ASC_NODE":144.8625,"ARG_OF_PERICENTER":205.4721,"MEAN_ANOMALY":154.6385,"EPHEMERIS_TYPE":0,"CLASSIFICATION_TYPE":"U","NORAD_CAT_ID":48269,"ELEMENT_SET_NO":999,"REV_AT_EPOCH":26584,"BSTAR":0.0011134246,"MEAN_MOTION_DOT":0.00030872,"MEAN_MOTION_DDOT":0},{"OBJECT_NAME":"STARLINK-31402","OBJECT_ID":"2024-057A","EPOCH":"2026-03-09T04:31:06.176352","MEAN_MOTION":15.27566123,"ECCENTRICITY":0.00020588,"INCLINATION":43.0084,"RA_OF_ASC_NODE":142.3019,"ARG_OF_PERICENTER":260.6014,"MEAN_ANOMALY":99.4605,"EPHEMERIS_TYPE":0,"CLASSIFICATION_TYPE":"U","NORAD_CAT_ID":59320,"ELEMENT_SET_NO":999,"REV_AT_EPOCH":11029,"BSTAR":-0.00013527715,"MEAN_MOTION_DOT":-3.982e-5,"MEAN_MOTION_DDOT":0}]
