LEMUR-2-AMANDA-SVANTE   
1 48269U 21034B   26068.77637527  .00030872  00000+0  11134-2 0  9996
2 48269  97.5829 144.8625 0002703 205.4721 154.6385 15.28469003265849
STARLINK-31402          
1 59320U 24057A   26068.18826593 -.00003982  00000+0 -13528-3 0  9996
2 59320  43.0084 142.3019 0002058 260.6014  99.4605 15.27566123110298
